[{"OBJECT_NAME":"ICEYE-X7","OBJECT_ID":"2020-068L","EPOCH":"2026-03-09T22:52:28.702272","MEAN_MOTION":15.29152508,"ECCENTRICITY":0.00068409,"INCLINATION":97.7412,"RA_OF_ASC_NODE":31.2076,"ARG_OF_PERICENTER":332.3045,"MEAN_ANOMALY":27.7829,"EPHEMERIS_TYPE":0,"CLASSIFICATION_TYPE":"U","NORAD_CAT_ID":46496,"ELEMENT_SET_NO":999,"REV_AT_EPOCH":29961,"BSTAR":0.0005654802,"MEAN_MOTION_DOT":0.00015947,"MEAN_MOTION_DDOT":0},{"OBJECT_NAME":"STARLINK-32936","OBJECT_ID":"2025-043R","EPOCH":"2026-03-09T07:12:16.072992","MEAN_MOTION":15.27586943,"ECCENTRICITY":0.0001507,"INCLINATION":43.0003,"RA_OF_ASC_NODE":25.2851,"ARG_OF_PERICENTER":258.0147,"MEAN_ANOMALY":102.0536,"EPHEMERIS_TYPE":0,"CLASSIFICATION_TYPE":"U","NORAD_CAT_ID":63147,"ELEMENT_SET_NO":999,"REV_AT_EPOCH":5722,"BSTAR":0.0012892383,"MEAN_MOTION_DOT":0.00035393,"MEAN_MOTION_DDOT":0}]
